NORAD_CAT_ID,OBJECT_NAME,OBJECT_TYPE,EPOCH,MEAN_MOTION,ECCENTRICITY,INCLINATION,RA_OF_ASC_NODE,ARG_OF_PERICENTER,MEAN_ANOMALY,BSTAR,MEAN_MOTION_DOT,MEAN_MOTION_DDOT,TLE_LINE0,TLE_LINE1,TLE_LINE2,SEMIMAJOR_AXIS,PERIOD,APOGEE,PERIGEE,DECAYED
52663.0,STARLINK-4037,PAYLOAD,2024-06-22 18:20:09,15.0883404,0.0001573,53.2172,79.5186,111.1055,249.0105,1.5915e-05,-3.5e-07,0.0,0 STARLINK-4037,1 52663U 22053H   24174.76399679 -.00000035  00000-0  15915-4 0  9992,2 52663  53.2172  79.5186 0001573 111.1055 249.0105 15.08834040116709,6917.899,95.438,540.852,538.675,0.0
52663.0,STARLINK-4037,PAYLOAD,2024-06-22 21:30:55,15.0883562,0.0001539,53.2174,78.9241,108.8539,251.262,3.2265e-05,2.25e-06,0.0,0 STARLINK-4037,1 52663U 22053H   24174.89647572  .00000225  00000-0  32265-4 0  9991,2 52663  53.2174  78.9241 0001539 108.8539 251.2620 15.08835620116722,6917.894,95.438,540.823,538.694,0.0
52663.0,STARLINK-4037,PAYLOAD,2024-06-22 23:06:18,15.08836319,0.0001545,53.2175,78.6261,113.4096,246.7058,3.3973e-05,2.53e-06,0.0,0 STARLINK-4037,1 52663U 22053H   24174.96271513  .00000253  00000-0  33973-4 0  9995,2 52663  53.2175  78.6261 0001545 113.4096 246.7058 15.08836319116730,6917.892,95.438,540.825,538.688,0.0
52663.0,STARLINK-4037,PAYLOAD,2024-06-23 21:21:42,15.08839348,0.0001146,53.2177,74.4674,77.4589,282.6531,5.1025e-05,5.24e-06,0.0,0 STARLINK-4037,1 52663U 22053H   24175.89007514  .00000524  00000-0  51025-4 0  9995,2 52663  53.2177  74.4674 0001146  77.4589 282.6531 15.08839348116872,6917.882,95.438,540.54,538.955,0.0
52663.0,STARLINK-4037,PAYLOAD,2024-06-23 22:57:05,15.08842671,0.0001257,53.2173,74.1666,97.619,262.4945,5.8872e-05,6.49e-06,0.0,0 STARLINK-4037,1 52663U 22053H   24175.95631200  .00000649  00000-0  58872-4 0  9992,2 52663  53.2173  74.1666 0001257  97.6190 262.4945 15.08842671116880,6917.872,95.437,540.607,538.868,0.0
52663.0,STARLINK-4037,PAYLOAD,2024-06-24 02:07:51,15.08848482,0.0001111,53.2174,73.5732,91.6397,268.4722,9.309e-05,1.194e-05,0.0,0 STARLINK-4037,1 52663U 22053H   24176.08878849  .00001194  00000-0  93090-4 0  9996,2 52663  53.2174  73.5732 0001111  91.6397 268.4722 15.08848482116908,6917.854,95.437,540.488,538.951,0.0
52663.0,STARLINK-4037,PAYLOAD,2024-06-24 21:12:30,15.08834475,0.0001164,53.2175,70.0061,99.1385,260.9739,6.9866e-06,-1.77e-06,0.0,0 STARLINK-4037,1 52663U 22053H   24176.88368088 -.00000177  00000-0  69866-5 0  9999,2 52663  53.2175  70.0061 0001164  99.1385 260.9739 15.08834475117020,6917.897,95.438,540.568,538.957,0.0
52663.0,STARLINK-4037,PAYLOAD,2024-06-25 00:23:16,15.08838104,0.0001357,53.2178,69.4115,85.5721,274.5426,3.7095e-05,3.02e-06,0.0,0 STARLINK-4037,1 52663U 22053H   24177.01615910  .00000302  00000-0  37095-4 0  9991,2 52663  53.2178  69.4115 0001357  85.5721 274.5426 15.08838104117041,6917.886,95.438,540.69,538.812,0.0
52663.0,STARLINK-4037,PAYLOAD,2024-06-25 21:03:16,15.08853233,0.0001525,53.2182,65.5451,85.3122,274.8044,-3.1111e-05,-7.83e-06,0.0,0 STARLINK-4037,1 52663U 22053H   24177.87727153 -.00000783  00000-0 -31111-4 0  9996,2 52663  53.2182  65.5451 0001525  85.3122 274.8044 15.08853233117179,6917.84,95.437,540.76,538.65,0.0
52663.0,STARLINK-4037,PAYLOAD,2024-06-25 22:38:39,15.08848063,0.0001385,53.218,65.248,83.8681,276.2469,6.2357e-05,7.05e-06,0.0,0 STARLINK-4037,1 52663U 22053H   24177.94351159  .00000705  00000-0  62357-4 0  9991,2 52663  53.2180  65.2480 0001385  83.8681 276.2469 15.08848063117186,6917.856,95.437,540.679,538.763,0.0
52663.0,STARLINK-4037,PAYLOAD,2024-06-26 00:14:01,15.08855801,0.0001115,53.2176,64.9488,89.6529,270.4591,0.00016307,2.309e-05,0.0,0 STARLINK-4037,1 52663U 22053H   24178.00974235  .00002309  00000-0  16307-3 0  9990,2 52663  53.2176  64.9488 0001115  89.6529 270.4591 15.08855801117192,6917.832,95.437,540.468,538.926,0.0
52663.0,STARLINK-4037,PAYLOAD,2024-06-26 22:29:26,15.08843059,0.000132,53.2191,60.777,94.125,265.9893,2.8322e-05,1.63e-06,0.0,0 STARLINK-4037,1 52663U 22053H   24178.93711285  .00000163  00000-0  28322-4 0  9993,2 52663  53.2191  60.7770 0001320  94.1250 265.9893 15.08843059117339,6917.871,95.437,540.649,538.823,0.0
52663.0,STARLINK-4037,PAYLOAD,2024-06-27 20:44:50,15.08842184,0.0001376,53.2179,56.6249,97.5831,262.5317,-5.7837e-05,-1.208e-05,0.0,0 STARLINK-4037,1 52663U 22053H   24179.86447769 -.00001208  00000-0 -57837-4 0  9995,2 52663  53.2179  56.6249 0001376  97.5831 262.5317 15.08842184117470,6917.874,95.437,540.691,538.787,0.0
52663.0,STARLINK-4037,PAYLOAD,2024-06-28 20:35:37,15.08843923,0.0001527,53.2188,52.1657,77.3941,282.7222,0.00017842,2.553e-05,0.0,0 STARLINK-4037,1 52663U 22053H   24180.85806916  .00002553  00000-0  17842-3 0  9992,2 52663  53.2188  52.1657 0001527  77.3941 282.7222 15.08843923117628,6917.868,95.437,540.79,538.677,0.0
52663.0,STARLINK-4037,PAYLOAD,2024-06-28 22:10:59,15.08857375,0.0001411,53.2185,51.8668,98.1886,261.9266,0.00023692,3.486e-05,0.0,0 STARLINK-4037,1 52663U 22053H   24180.92429857  .00003486  00000-0  23692-3 0  9991,2 52663  53.2185  51.8668 0001411  98.1886 261.9266 15.08857375117638,6917.827,95.436,540.668,538.716,0.0
52663.0,STARLINK-4037,PAYLOAD,2024-06-29 20:26:26,15.08825146,0.0001411,53.2186,47.7043,111.3341,248.7802,-4.4289e-06,-3.58e-06,0.0,0 STARLINK-4037,1 52663U 22053H   24181.85169077 -.00000358  00000-0 -44289-5 0  9993,2 52663  53.2186  47.7043 0001411 111.3341 248.7802 15.08825146117779,6917.926,95.438,540.767,538.815,0.0
52663.0,STARLINK-4037,PAYLOAD,2024-06-29 22:01:49,15.08830144,0.000118,53.2179,47.4069,99.6555,260.4571,-2.733e-05,-7.23e-06,0.0,0 STARLINK-4037,1 52663U 22053H   24181.91792941 -.00000723  00000-0 -27330-4 0  9995,2 52663  53.2179  47.4069 0001180  99.6555 260.4571 15.08830144117783,6917.911,95.438,540.592,538.959,0.0
52663.0,STARLINK-4037,PAYLOAD,2024-06-30 07:34:07,15.0883337,0.0001177,53.2173,45.6232,97.5747,262.5379,-2.0496e-05,-6.14e-06,0.0,0 STARLINK-4037,1 52663U 22053H   24182.31536447 -.00000614  00000-0 -20496-4 0  9992,2 52663  53.2173  45.6232 0001177  97.5747 262.5379 15.08833370117845,6917.901,95.438,540.58,538.951,0.0
52663.0,STARLINK-4037,PAYLOAD,2024-06-30 20:17:12,15.08847005,0.0001153,53.2167,43.2436,105.6602,254.4518,1.613e-05,-3.1e-07,0.0,0 STARLINK-4037,1 52663U 22053H   24182.84527912 -.00000031  00000-0  16130-4 0  9999,2 52663  53.2167  43.2436 0001153 105.6602 254.4518 15.08847005117927,6917.859,95.437,540.522,538.926,0.0
52663.0,STARLINK-4037,PAYLOAD,2024-06-30 21:52:34,15.08850303,0.0001077,53.2162,42.947,96.2439,263.8676,6.4889e-05,7.45e-06,0.0,0 STARLINK-4037,1 52663U 22053H   24182.91151518  .00000745  00000-0  64889-4 0  9997,2 52663  53.2162  42.9470 0001077  96.2439 263.8676 15.08850303117939,6917.849,95.437,540.459,538.969,0.0
52663.0,STARLINK-4037,PAYLOAD,2024-07-01 07:24:53,15.08850084,0.0001031,53.2164,41.1626,93.3166,266.7944,0.00015849,2.236e-05,0.0,0 STARLINK-4037,1 52663U 22053H   24183.30895505  .00002236  00000-0  15849-3 0  9990,2 52663  53.2164  41.1626 0001031  93.3166 266.7944 15.08850084117992,6917.85,95.437,540.428,539.001,0.0
52663.0,STARLINK-4037,PAYLOAD,2024-07-01 20:07:59,15.08834591,0.000141,53.2185,38.7859,103.3464,256.7685,0.00015638,2.201e-05,0.0,0 STARLINK-4037,1 52663U 22053H   24183.83888797  .00002201  00000-0  15638-3 0  9991,2 52663  53.2185  38.7859 0001410 103.3464 256.7685 15.08834591118075,6917.897,95.438,540.737,538.786,0.0
52663.0,STARLINK-4037,PAYLOAD,2024-07-01 21:43:22,15.08838208,0.0001187,53.2178,38.4862,90.5954,269.5174,0.00021581,3.148e-05,0.0,0 STARLINK-4037,1 52663U 22053H   24183.90512618  .00003148  00000-0  21581-3 0  9990,2 52663  53.2178  38.4862 0001187  90.5954 269.5174 15.08838208118085,6917.886,95.438,540.572,538.93,0.0
52663.0,STARLINK-4037,PAYLOAD,2024-07-01 23:18:45,15.08844316,9.74e-05,53.2165,38.1869,106.0148,254.0951,0.00028372,4.231e-05,0.0,0 STARLINK-4037,1 52663U 22053H   24183.97136187  .00004231  00000-0  28372-3 0  9999,2 52663  53.2165  38.1869 0000974 106.0148 254.0951 15.08844316118096,6917.867,95.437,540.406,539.058,0.0
52663.0,STARLINK-4037,PAYLOAD,2024-07-02 13:37:14,15.08840235,0.0001078,53.2159,35.5126,94.2441,265.8675,6.6155e-05,7.65e-06,0.0,0 STARLINK-4037,1 52663U 22053H   24184.56752463  .00000765  00000-0  66155-4 0  9996,2 52663  53.2159  35.5126 0001078  94.2441 265.8675 15.08840235118185,6917.88,95.438,540.49,538.999,0.0
52663.0,STARLINK-4037,PAYLOAD,2024-07-02 19:58:46,15.08844203,0.0001025,53.2163,34.3237,96.8643,263.2466,8.3384e-06,-1.55e-06,0.0,0 STARLINK-4037,1 52663U 22053H   24184.83248230 -.00000155  00000-0  83384-5 0  9996,2 52663  53.2163  34.3237 0001025  96.8643 263.2466 15.08844203118228,6917.868,95.437,540.442,539.023,0.0
52663.0,STARLINK-4037,PAYLOAD,2024-07-02 21:34:09,15.08846731,0.000102,53.2168,34.0269,100.1043,260.0064,5.0551e-05,5.17e-06,0.0,0 STARLINK-4037,1 52663U 22053H   24184.89872077  .00000517  00000-0  50551-4 0  9994,2 52663  53.2168  34.0269 0001020 100.1043 260.0064 15.08846731118231,6917.86,95.437,540.43,539.019,0.0
52663.0,STARLINK-4037,PAYLOAD,2024-07-03 13:28:01,15.08837626,9.1e-05,53.2161,31.0528,90.7579,269.3517,0.00012768,1.745e-05,0.0,0 STARLINK-4037,1 52663U 22053H   24185.56112562  .00001745  00000-0  12768-3 0  9996,2 52663  53.2161  31.0528 0000910  90.7579 269.3517 15.08837626118333,6917.888,95.438,540.382,539.123,0.0
52663.0,STARLINK-4037,PAYLOAD,2024-07-03 21:24:56,15.08845099,9.52e-05,53.2157,29.5653,97.4178,262.6922,7.6927e-05,9.37e-06,0.0,0 STARLINK-4037,1 52663U 22053H   24185.89232201  .00000937  00000-0  76927-4 0  9995,2 52663  53.2157  29.5653 0000952  97.4178 262.6922 15.08845099118388,6917.865,95.437,540.388,539.071,0.0
52663.0,STARLINK-4037,PAYLOAD,2024-07-04 13:18:48,15.08833766,9.69e-05,53.2169,26.5905,95.4919,264.6184,9.7506e-05,1.264e-05,0.0,0 STARLINK-4037,1 52663U 22053H   24186.55472947  .00001264  00000-0  97506-4 0  9992,2 52663  53.2169  26.5905 0000969  95.4919 264.6184 15.08833766118488,6917.899,95.438,540.435,539.094,0.0
